STARLINK-36079          
1 66897U 25283V   26068.18175934  .00030282  00000+0  10321-2 0  9999
2 66897  53.1607  26.7195 0001177  62.3626 297.7495 15.30145991 15750
2025-313BC              
1 67298U 25313BC  26068.18968176  .00075331  00000+0  26410-2 0  9997
2 67298  97.3985 144.8110 0008478 328.9209  31.1528 15.29126358  7890
